[{"OBJECT_NAME":"STARLINK-5020","OBJECT_ID":"2023-015K","EPOCH":"2026-03-09T10:15:17.646912","MEAN_MOTION":15.02541076,"ECCENTRICITY":0.0001236,"INCLINATION":43.0042,"RA_OF_ASC_NODE":327.4906,"ARG_OF_PERICENTER":263.9937,"MEAN_ANOMALY":96.0765,"EPHEMERIS_TYPE":0,"CLASSIFICATION_TYPE":"U","NORAD_CAT_ID":55458,"ELEMENT_SET_NO":999,"REV_AT_EPOCH":17071,"BSTAR":-0.0002408723,"MEAN_MOTION_DOT":-3.456e-5,"MEAN_MOTION_DDOT":0},{"OBJECT_NAME":"OBJECT F","OBJECT_ID":"2025-292F","EPOCH":"2026-03-09T22:41:00.950496","MEAN_MOTION":15.06065121,"ECCENTRICITY":0.00151037,"INCLINATION":97.6416,"RA_OF_ASC_NODE":145.7425,"ARG_OF_PERICENTER":346.7214,"MEAN_ANOMALY":13.3613,"EPHEMERIS_TYPE":0,"CLASSIFICATION_TYPE":"U","NORAD_CAT_ID":66998,"ELEMENT_SET_NO":999,"REV_AT_EPOCH":1351,"BSTAR":0.00047210602,"MEAN_MOTION_DOT":6.85e-5,"MEAN_MOTION_DDOT":0}]
